$$SOE
2461295.500000000, A.D. 2026-Sep-12 00:00:00.0000, 4.239476573002230E+06, -2.659949506707744E+08, 5.348196529843882E+07,
2461302.500000000, A.D. 2026-Sep-19 00:00:00.0000, 1.762318676047921E+07, -2.629788946422282E+08, 5.226527658158256E+07,
2461309.500000000, A.D. 2026-Sep-26 00:00:00.0000, 3.096265090321098E+07, -2.593049345656745E+08, 5.091783675532845E+07,
2461316.500000000, A.D. 2026-Oct-03 00:00:00.0000, 4.422216391516348E+07, -2.549628072576271E+08, 4.943919672232530E+07,
2461323.500000000, A.D. 2026-Oct-10 00:00:00.0000, 5.736412591262764E+07, -2.499439675383711E+08, 4.782934010451095E+07,
2461330.500000000, A.D. 2026-Oct-17 00:00:00.0000, 7.034907850040112E+07, -2.442418386589733E+08, 4.608873215102461E+07,
2461337.500000000, A.D. 2026-Oct-24 00:00:00.0000, 8.313577167023335E+07, -2.378520775454341E+08, 4.421837021489081E+07,
2461344.500000000, A.D. 2026-Oct-31 00:00:00.0000, 9.568126607269868E+07, -2.307728521177052E+08, 4.221983500555502E+07,
2461351.500000000, A.D. 2026-Nov-07 00:00:00.0000, 1.079410756374809E+08, -2.230051267663214E+08, 4.009534160946178E+07,
2461358.500000000, A.D. 2026-Nov-14 00:00:00.0000, 1.198693551361177E+08, -2.145529501011828E+08, 3.784778912679493E+07,
2461365.500000000, A.D. 2026-Nov-21 00:00:00.0000, 1.314191347633499E+08, -2.054237380521835E+08, 3.548080771007527E+07,
2461372.500000000, A.D. 2026-Nov-28 00:00:00.0000, 1.425426038083845E+08, -1.956285478199584E+08, 3.299880119305187E+07,
2461379.500000000, A.D. 2026-Dec-05 00:00:00.0000, 1.531914489343284E+08, -1.851823346018380E+08, 3.040698307497513E+07,
2461386.500000000, A.D. 2026-Dec-12 00:00:00.0000, 1.633172475755957E+08, -1.741041781752568E+08, 2.771140410600111E+07,
2461393.500000000, A.D. 2026-Dec-19 00:00:00.0000, 1.728719129670916E+08, -1.624174686912896E+08, 2.491896957396790E+07,
2461400.500000000, A.D. 2026-Dec-26 00:00:00.0000, 1.818081867668591E+08, -1.501500414341052E+08, 2.203744416973039E+07,
2461407.500000000, A.D. 2027-Jan-02 00:00:00.0000, 1.900801730751907E+08, -1.373342496478014E+08, 1.907544244677816E+07,
2461414.500000000, A.D. 2027-Jan-09 00:00:00.0000, 1.976439047528154E+08, -1.240069649540453E+08, 1.604240317536800E+07,
2461421.500000000, A.D. 2027-Jan-16 00:00:00.0000, 2.044579301138200E+08, -1.102094962286269E+08, 1.294854629188807E+07,
2461428.500000000, A.D. 2027-Jan-23 00:00:00.0000, 2.104839055258119E+08, -9.598741993337978E+07, 9.804811672596425E+06,
2461435.500000000, A.D. 2027-Jan-30 00:00:00.0000, 2.156871774492408E+08, -8.139031770897220E+07, 6.622779605316624E+06,
2461442.500000000, A.D. 2027-Feb-06 00:00:00.0000, 2.200373362140085E+08, -6.647142007495209E+07, 3.414573607299387E+06,
2461449.500000000, A.D. 2027-Feb-13 00:00:00.0000, 2.235087223811738E+08, -5.128715814337759E+07, 1.927472221604101E+05,
2461456.500000000, A.D. 2027-Feb-20 00:00:00.0000, 2.260808650641516E+08, -3.589663147060220E+07, -3.029842741371555E+06,
2461463.500000000, A.D. 2027-Feb-27 00:00:00.0000, 2.277388368485933E+08, -2.036100670809335E+07, -6.240173856568942E+06,
2461470.500000000, A.D. 2027-Mar-06 00:00:00.0000, 2.284735142097712E+08, -4.742860309602986E+06, -9.425203028338458E+06,
2461477.500000000, A.D. 2027-Mar-13 00:00:00.0000, 2.282817313447209E+08, 1.089451850405156E+07, -1.257201426935594E+07,
2461484.500000000, A.D. 2027-Mar-20 00:00:00.0000, 2.271663201819989E+08, 2.648784332190429E+07, -1.566796487881953E+07,
2461491.500000000, A.D. 2027-Mar-27 00:00:00.0000, 2.251360354716924E+08, 4.197454278759182E+07, -1.870082572483770E+07,
2461498.500000000, A.D. 2027-Apr-03 00:00:00.0000, 2.222053687508628E+08, 5.729344841824390E+07, -2.165891156928460E+07,
2461505.500000000, A.D. 2027-Apr-10 00:00:00.0000, 2.183942594456386E+08, 7.238543845847733E+07, -2.453119786376329E+07,
2461512.500000000, A.D. 2027-Apr-17 00:00:00.0000, 2.137277153217622E+08, 8.719402073890853E+07, -2.730742113941628E+07,
2461519.500000000, A.D. 2027-Apr-24 00:00:00.0000, 2.082353576636029E+08, 1.016658408338640E+08, -2.997816094432492E+07,
2461526.500000000, A.D. 2027-May-01 00:00:00.0000, 2.019509088512737E+08, 1.157511058024107E+08, -3.253490217843173E+07,
2461533.500000000, A.D. 2027-May-08 00:00:00.0000, 1.949116409611744E+08, 1.294039186081478E+08, -3.497007749037511E+07,
2461540.500000000, A.D. 2027-May-15 00:00:00.0000, 1.871578020647468E+08, 1.425825225374533E+08, -3.727709001110391E+07,
2461547.500000000, A.D. 2027-May-22 00:00:00.0000, 1.787320358346215E+08, 1.552494551038184E+08, -3.945031768290795E+07,
2461554.500000000, A.D. 2027-May-29 00:00:00.0000, 1.696788132482089E+08, 1.673716151254740E+08, -4.148510136556479E+07,
2461561.500000000, A.D. 2027-Jun-05 00:00:00.0000, 1.600438903586651E+08, 1.789202536698372E+08, -4.337771867408494E+07,
2461568.500000000, A.D. 2027-Jun-12 00:00:00.0000, 1.498738006164884E+08, 1.898708985863158E+08, -4.512534568400627E+07,
2461575.500000000, A.D. 2027-Jun-19 00:00:00.0000, 1.392153892362706E+08, 2.002032219794975E+08, -4.672600898598147E+07,
2461582.500000000, A.D. 2027-Jun-26 00:00:00.0000, 1.281153951095072E+08, 2.099008609988218E+08, -4.817853051429322E+07,
2461589.500000000, A.D. 2027-Jul-03 00:00:00.0000, 1.166200832174036E+08, 2.189512024295585E+08, -4.948246738195723E+07,
2461596.500000000, A.D. 2027-Jul-10 00:00:00.0000, 1.047749283280972E+08, 2.273451410254091E+08, -5.063804874221627E+07,
2461603.500000000, A.D. 2027-Jul-17 00:00:00.0000, 9.262434908367927E+07, 2.350768206274877E+08, -5.164611147282500E+07,
2461610.500000000, A.D. 2027-Jul-24 00:00:00.0000, 8.021149040670243E+07, 2.421433660107749E+08, -5.250803623392108E+07,
2461617.500000000, A.D. 2027-Jul-31 00:00:00.0000, 6.757805144628789E+07, 2.485446124995383E+08, -5.322568516380827E+07,
2461624.500000000, A.D. 2027-Aug-07 00:00:00.0000, 5.476415501232310E+07, 2.542828401063352E+08, -5.380134206478081E+07,
2461631.500000000, A.D. 2027-Aug-14 00:00:00.0000, 4.180825196148042E+07, 2.593625163804543E+08, -5.423765558994764E+07,
2461638.500000000, A.D. 2027-Aug-21 00:00:00.0000, 2.874705673857644E+07, 2.637900479883674E+08, -5.453758623327099E+07,
2461645.500000000, A.D. 2027-Aug-28 00:00:00.0000, 1.561551313320047E+07, 2.675735447273885E+08, -5.470435764459339E+07,
2461652.500000000, A.D. 2027-Sep-04 00:00:00.0000, 2.446784897871783E+06, 2.707226001447452E+08, -5.474141210732081E+07,
2461659.500000000, A.D. 2027-Sep-11 00:00:00.0000, -1.072773408649768E+07, 2.732480890685951E+08, -5.465237011923598E+07,
2461666.500000000, A.D. 2027-Sep-18 00:00:00.0000, -2.387839356067253E+07, 2.751619818164492E+08, -5.444099406089281E+07,
2461673.500000000, A.D. 2027-Sep-25 00:00:00.0000, -3.697724755749726E+07, 2.764771749761573E+08, -5.411115582661626E+07,
2461680.500000000, A.D. 2027-Oct-02 00:00:00.0000, -4.999800477969848E+07, 2.772073384154657E+08, -5.366680821805888E+07,
2461687.500000000, A.D. 2027-Oct-09 00:00:00.0000, -6.291597115943941E+07, 2.773667778882606E+08, -5.311195986296204E+07,
2461694.500000000, A.D. 2027-Oct-16 00:00:00.0000, -7.570798668490295E+07, 2.769703123745777E+08, -5.245065340886035E+07,
2461701.500000000, A.D. 2027-Oct-23 00:00:00.0000, -8.835235805867116E+07, 2.760331652220619E+08, -5.168694674614295E+07,
2461708.500000000, A.D. 2027-Oct-30 00:00:00.0000, -1.008287883440071E+08, 2.745708687051693E+08, -5.082489697507565E+07,
2461715.500000000, A.D. 2027-Nov-06 00:00:00.0000, -1.131183060300288E+08, 2.725991821130730E+08, -4.986854665667631E+07,
2461722.500000000, A.D. 2027-Nov-13 00:00:00.0000, -1.252031965256735E+08, 2.701340202754713E+08, -4.882191208442490E+07,
2461729.500000000, A.D. 2027-Nov-20 00:00:00.0000, -1.370669339987018E+08, 2.671913893310389E+08, -4.768897377645899E+07,
2461736.500000000, A.D. 2027-Nov-27 00:00:00.0000, -1.486941126049460E+08, 2.637873317428321E+08, -4.647366887096819E+07,
2461743.500000000, A.D. 2027-Dec-04 00:00:00.0000, -1.600703796368775E+08, 2.599378805844585E+08, -4.517988496546637E+07,
2461750.500000000, A.D. 2027-Dec-11 00:00:00.0000, -1.711823715116135E+08, 2.556590212905490E+08, -4.381145524086259E+07,
2461757.500000000, A.D. 2027-Dec-18 00:00:00.0000, -1.820176525919106E+08, 2.509666597474926E+08, -4.237215475176030E+07,
2461764.500000000, A.D. 2027-Dec-25 00:00:00.0000, -1.925646568719884E+08, 2.458765960031667E+08, -4.086569774361976E+07,
2461771.500000000, A.D. 2028-Jan-01 00:00:00.0000, -2.028126325996871E+08, 2.404045029555373E+08, -3.929573586236219E+07,
$$EOE